TOMORROW-S2             
1 60485U 24149T   26068.75188364  .00008133  00000+0  27683-3 0  9990
2 60485  97.3857 150.0385 0001648 234.3331 125.7757 15.30674935 86869
STARLINK-36069          
1 66806U 25278R   26068.15692618  .00030908  00000+0  11277-2 0  9999
2 66806  42.9949 117.7185 0000422 290.9114  69.1692 15.27587272 15127
